{
  "norad_id": 59859,
  "name": "STARLINK-31442",
  "history": [
    {
      "epoch": "2026-03-28T14:30:32.325120",
      "apogee_km": 483.8999268076459,
      "perigee_km": 482.1530745803693,
      "latitude_deg": 42.13158463867965,
      "longitude_deg": -136.0640832001809,
      "semi_major_axis_km": 6861.163500694008,
      "eccentricity": 0.0001273,
      "inclination_deg": 42.9988,
      "raan_deg": 175.0711,
      "arg_perigee_deg": 271.3056,
      "mean_anomaly_deg": 88.765,
      "mean_motion_rev_day": 15.27587546
    }
  ]
}