{"fetched_at":"2026-03-29T02:12:04Z","count":15717,"tles":[{"name":"STARLINK-31442","line1":"1 59859U 24098B   26087.60454080  .00001073  00000+0  48515-4 0  9996","line2":"2 59859  42.9988 175.0711 0001272 271.3056  88.7650 15.27587546104690","category":"Starlink"}]}